GPS BIIR-2  (PRN 13)    
1 24876U 97035A   25178.21194270 -.00000013  00000+0  00000+0 0  9993
2 24876  55.8136 112.4625 0091845  54.4363 306.3901  2.00562435204836
GPS BIIR-4  (PRN 20)    
1 26360U 00025A   25178.60175987 -.00000088  00000+0  00000+0 0  9995
2 26360  54.9425  33.6343 0036337 232.9116 135.3688  2.00549296184167
GPS BIIR-5  (PRN 22)    
1 26407U 00040A   25178.54899404  .00000024  00000+0  00000+0 0  9993
2 26407  54.9352 229.2527 0132974 298.7621 234.1211  2.00565987182837
GPS BIIR-8  (PRN 16)    
1 27663U 03005A   25178.59306861  .00000024  00000+0  00000+0 0  9997
2 27663  54.9698 229.0609 0142496  50.2362 291.7946  2.00553636164198
GPS BIIR-11 (PRN 19)    
1 28190U 04009A   25177.40303622 -.00000054  00000+0  00000+0 0  9993
2 28190  55.1291 290.0399 0106058 161.7740 200.4035  2.00567074155818
GPS BIIR-13 (PRN 02)    
1 28474U 04045A   25177.81149288 -.00000102  00000+0  00000+0 0  9993
2 28474  55.3189 339.1936 0165781 304.0847  52.5607  2.00561841151296
GPS BIIRM-1 (PRN 17)    
1 28874U 05038A   25176.37822569 -.00000050  00000+0  00000+0 0  9992
2 28874  55.1746 287.5555 0132651 290.2277  76.2479  2.00559598144684
GPS BIIRM-2 (PRN 31)    
1 29486U 06042A   25178.01838905  .00000033  00000+0  00000+0 0  9992
2 29486  54.6865 165.4322 0104251  46.7579 325.2218  2.00562051137273
GPS BIIRM-3 (PRN 12)    
1 29601U 06052A   25177.93224793  .00000033  00000+0  00000+0 0  9996
2 29601  55.0123 228.0933 0085091  86.6547 274.4024  2.00563899136287
GPS BIIRM-4 (PRN 15)    
1 32260U 07047A   25177.73967087 -.00000036  00000+0  00000+0 0  9998
2 32260  53.8345  94.7426 0161823  81.7544 280.0759  2.00571705129689
GPS BIIRM-5 (PRN 29)    
1 32384U 07062A   25176.53985140 -.00000051  00000+0  00000+0 0  9996
2 32384  55.3220 288.4685 0032354 158.6712 183.7145  2.00568657128354
GPS BIIRM-6 (PRN 07)    
1 32711U 08012A   25178.15332247  .00000032  00000+0  00000+0 0  9998
2 32711  54.4657 164.1000 0199790 243.4960 114.4190  2.00558906126635
GPS BIIRM-8 (PRN 05)    
1 35752U 09043A   25177.65033163 -.00000076  00000+0  00000+0 0  9999
2 35752  55.9710  41.4478 0055727  78.7173 292.0494  2.00575098116237
GPS BIIF-1  (PRN 25)    
1 36585U 10022A   25177.47626009  .00000043  00000+0  00000+0 0  9993
2 36585  54.3364 222.8956 0120486  64.0660 302.1016  2.00570370110460
GPS BIIF-3  (PRN 24)    
1 38833U 12053A   25177.83426492  .00000026  00000+0  00000+0 0  9992
2 38833  53.5408 158.1525 0166539  60.8068 300.8152  2.00563083 92318
GPS BIIF-4  (PRN 27)    
1 39166U 13023A   25177.69818524 -.00000045  00000+0  00000+0 0  9997
2 39166  54.7897 283.4353 0132965  48.1400 313.0149  2.00560910 88750
GPS BIIF-5  (PRN 30)    
1 39533U 14008A   25177.69684653  .00000031  00000+0  00000+0 0  9997
2 39533  53.6179 163.8148 0078795 226.0647 133.2600  2.00564234 82551
GPS BIIF-6  (PRN 06)    
1 39741U 14026A   25178.47421188 -.00000101  00000+0  00000+0 0  9996
2 39741  56.6440 345.3141 0034704 319.7615  39.9791  2.00573397 81421
GPS BIIF-7  (PRN 09)    
1 40105U 14045A   25177.56614446 -.00000028  00000+0  00000+0 0  9991
2 40105  55.1235 102.6512 0029778 115.9009 244.3933  2.00561746 78945
GPS BIIF-8  (PRN 03)    
1 40294U 14068A   25177.43600315 -.00000071  00000+0  00000+0 0  9999
2 40294  56.7296  44.6916 0061449  67.1569 293.5535  2.00554351 78073
GPS BIIF-9  (PRN 26)    
1 40534U 15013A   25178.57263468  .00000030  00000+0  00000+0 0  9991
2 40534  53.2344 218.8484 0099043  35.1802 325.5435  2.00572551 74711
GPS BIIF-10 (PRN 08)    
1 40730U 15033A   25178.23651443 -.00000045  00000+0  00000+0 0  9995
2 40730  54.2687 281.7018 0104004  25.2124 335.3252  2.00574353 72876
GPS BIIF-11 (PRN 10)    
1 41019U 15062A   25177.79305741 -.00000073  00000+0  00000+0 0  9996
2 41019  56.7060  44.5339 0103546 228.1158 131.0552  2.00566836 70702
GPS BIIF-12 (PRN 32)    
1 41328U 16007A   25177.87533523 -.00000025  00000+0  00000+0 0  9996
2 41328  55.3064 103.5621 0087883 242.9114 116.1786  2.00569284 68716
GPS BIII-1  (PRN 04)    
1 43873U 18109A   25178.26144544 -.00000019  00000+0  00000+0 0  9996
2 43873  55.4711 106.2022 0033525 196.7220 335.1346  2.00571098 47950
GPS BIII-2  (PRN 18)    
1 44506U 19056A   25177.90229428 -.00000102  00000+0  00000+0 0  9990
2 44506  55.7805 345.2487 0053223 193.3047 338.2517  2.00562293 42943
GPS BIII-3  (PRN 23)    
1 45854U 20041A   25178.54922743 -.00000077  00000+0  00000+0 0  9995
2 45854  56.4247  42.7339 0053816 199.0547  23.9335  2.00566265 36929
GPS BIII-4  (PRN 14)    
1 46826U 20078A   25177.52260405  .00000040  00000+0  00000+0 0  9991
2 46826  54.0572 225.2059 0060560 202.2610 327.9568  2.00558367 34379
GPS BIII-5  (PRN 11)    
1 48859U 21054A   25177.53304003 -.00000102  00000+0  00000+0 0  9998
2 48859  55.3140 346.7412 0020312 225.9405 142.7775  2.00563063 29623
GPS BIII-6  (PRN 28)    
1 55268U 23009A   25178.21176534  .00000032  00000+0  00000+0 0  9995
2 55268  55.0966 162.4609 0003689 328.3641 209.5619  2.00568165 18127
GPS BIII-7  (PRN 01)    
1 62339U 24242A   25178.11343723 -.00000104  00000+0  00000+0 0  9998
2 62339  54.9723 348.5638 0005757 348.4356 195.6458  2.00558707  4139
GPS BIII-8  (PRN 21)    
1 64202U 25116A   25178.33933604 -.00000077  00000+0  00000+0 0  9996
2 64202  54.9780  45.4413 0001432 300.7010 235.6146  2.00570136   754
